STARLINK-11535 [DTC]    
1 62595U 25008J   26068.53113135  .00114220  00000+0  88026-3 0  9992
2 62595  42.9992 126.7301 0001975 251.4188 108.6466 15.70871612 67119
LOGSATS                 
1 62689U 25009CJ  26068.72615147  .00266017  00000+0  19541-2 0  9995
2 62689  97.3907 158.8419 0005393 263.6729  96.3920 15.72310294 64215
