[{"OBJECT_NAME":"STARLINK-11535 [DTC]","OBJECT_ID":"2025-008J","EPOCH":"2026-03-09T12:44:49.748640","MEAN_MOTION":15.70871612,"ECCENTRICITY":0.00019758,"INCLINATION":42.9992,"RA_OF_ASC_NODE":126.7301,"ARG_OF_PERICENTER":251.4188,"MEAN_ANOMALY":108.6466,"EPHEMERIS_TYPE":0,"CLASSIFICATION_TYPE":"U","NORAD_CAT_ID":62595,"ELEMENT_SET_NO":999,"REV_AT_EPOCH":6711,"BSTAR":0.00088026329,"MEAN_MOTION_DOT":0.0011422,"MEAN_MOTION_DDOT":0},{"OBJECT_NAME":"LOGSATS","OBJECT_ID":"2025-009CJ","EPOCH":"2026-03-09T17:25:39.487008","MEAN_MOTION":15.72310294,"ECCENTRICITY":0.00053927,"INCLINATION":97.3907,"RA_OF_ASC_NODE":158.8419,"ARG_OF_PERICENTER":263.6729,"MEAN_ANOMALY":96.392,"EPHEMERIS_TYPE":0,"CLASSIFICATION_TYPE":"U","NORAD_CAT_ID":62689,"ELEMENT_SET_NO":999,"REV_AT_EPOCH":6421,"BSTAR":0.0019540727,"MEAN_MOTION_DOT":0.00266017,"MEAN_MOTION_DDOT":0}]
